ONEWEB-0444             
1 51638U 22012S   23355.67086295  .00000228  00000+0  61755-3 0  9999
2 51638  87.8917 216.7273 0001291  89.3698 270.7577 13.10378468 90352
ONEWEB-0445             
1 51639U 22012T   23355.61564799  .00000623  00000+0  17485-2 0  9993
2 51639  87.8899 216.7198 0001698  73.6666 286.4648 13.10376759 90354
ONEWEB-0446             
1 51640U 22012U   23356.12738029 -.00000220  00000+0 -66784-3 0  9993
2 51640  87.8911 216.6268 0001699  78.9175 281.2143 13.10375371 91704
ONEWEB-0448             
1 51641U 22012V   23355.67413203  .00000362  00000+0  10007-2 0  9998
2 51641  87.8912 216.7181 0001243  85.6906 274.4364 13.10375916 90313
ONEWEB-0449             
1 51642U 22012W   23355.67899948  .00000339  00000+0  93426-3 0  9994
2 51642  87.8913 216.7221 0001314  68.8648 291.2620 13.10374582 90326
ONEWEB-0451             
1 51643U 22012X   23356.08767255  .00000004  00000+0 -22020-4 0  9999
2 51643  87.9196 186.4041 0001263  88.5062 271.6214 13.17697798 95371
ONEWEB-0452             
1 51644U 22012Y   23355.93419208  .00000010  00000+0 -69579-5 0  9993
2 51644  87.9202 186.4628 0001119  70.3566 289.7686 13.17599150 94060
ONEWEB-0455             
1 51645U 22012Z   23355.89106118  .00000531  00000+0  22926-3 0  9992
2 51645  87.5347 168.0678 0016206 198.4454 161.6151 14.22671177 96951
